{"type": "FeatureCollection", "features": [ {"type": "Feature", "properties": {"norad_id": 34955, "name": "COSMOS 2251 DEB", "group": "cosmos-2251-debris", "lat": 50.53068505544277, "lon": -91.97476201624409, "alt_km": 565.6284375164032, "timestamp": "2025-12-12T03:50:52.813957+00:00", "meta": {"OBJECT_NAME": "COSMOS 2251 DEB", "OBJECT_ID": "1993-036AEJ", "EPOCH": "2025-12-11T10:00:38.398176", "MEAN_MOTION": 15.00495775, "ECCENTRICITY": 0.00779991, "INCLINATION": 74.0375, "RA_OF_ASC_NODE": 249.1952, "ARG_OF_PERICENTER": 319.1032, "MEAN_ANOMALY": 40.4318, "EPHEMERIS_TYPE": 0, "CLASSIFICATION_TYPE": "U", "NORAD_CAT_ID": 34955, "ELEMENT_SET_NO": 999, "REV_AT_EPOCH": 90014, "BSTAR": 0.0014966224, "MEAN_MOTION_DOT": 0.00020131, "MEAN_MOTION_DDOT": 0}, "tle": {"line1": "1 34955U 93036AEJ 25345.41711109  .00020131  00000+0  14966-2 0  9994", "line2": "2 34955  74.0375 249.1952 0077999 319.1032  40.4318 15.00495775900143"}}, "geometry": {"type": "Point", "coordinates": [-91.97476201624409, 50.53068505544277]}}, {"type": "Feature", "properties": {"norad_id": 34962, "name": "COSMOS 2251 DEB", "group": "cosmos-2251-debris", "lat": -42.70595580662793, "lon": 179.12139848091414, "alt_km": 730.114331535492, "timestamp": "2025-12-12T03:50:52.813967+00:00", "meta": {"OBJECT_NAME": "COSMOS 2251 DEB", "OBJECT_ID": "1993-036AER", "EPOCH": "2025-12-10T13:52:41.169792", "MEAN_MOTION": 14.46507093, "ECCENTRICITY": 0.0018754, "INCLINATION": 74.0294, "RA_OF_ASC_NODE": 197.4019, "ARG_OF_PERICENTER": 310.673, "MEAN_ANOMALY": 49.2798, "EPHEMERIS_TYPE": 0, "CLASSIFICATION_TYPE": "U", "NORAD_CAT_ID": 34962, "ELEMENT_SET_NO": 999, "REV_AT_EPOCH": 87547, "BSTAR": 0.00061582, "MEAN_MOTION_DOT": 2.195e-05, "MEAN_MOTION_DDOT": 0}, "tle": {"line1": "1 34962U 93036AER 25344.57825428  .00002195  00000+0  61582-3 0  9995", "line2": "2 34962  74.0294 197.4019 0018754 310.6730  49.2798 14.46507093875477"}}, "geometry": {"type": "Point", "coordinates": [179.12139848091414, -42.70595580662793]}}, {"type": "Feature", "properties": {"norad_id": 34963, "name": "COSMOS 2251 DEB", "group": "cosmos-2251-debris", "lat": -22.73507570594129, "lon": -129.34416645986022, "alt_km": 702.8594138930248, "timestamp": "2025-12-12T03:50:52.813976+00:00", "meta": {"OBJECT_NAME": "COSMOS 2251 DEB", "OBJECT_ID": "1993-036AES", "EPOCH": "2025-12-08T12:52:00.806016", "MEAN_MOTION": 14.51014391, "ECCENTRICITY": 0.0042597, "INCLINATION": 74.1718, "RA_OF_ASC_NODE": 50.5866, "ARG_OF_PERICENTER": 247.8405, "MEAN_ANOMALY": 111.8233, "EPHEMERIS_TYPE": 0, "CLASSIFICATION_TYPE": "U", "NORAD_CAT_ID": 34963, "ELEMENT_SET_NO": 999, "REV_AT_EPOCH": 86740, "BSTAR": 0.0019565, "MEAN_MOTION_DOT": 7.813e-05, "MEAN_MOTION_DDOT": 0}, "tle": {"line1": "1 34963U 93036AES 25342.53612044  .00007813  00000+0  19565-2 0  9993", "line2": "2 34963  74.1718  50.5866 0042597 247.8405 111.8233 14.51014391867405"}}, "geometry": {"type": "Point", "coordinates": [-129.34416645986022, -22.73507570594129]}}, {"type": "Feature", "properties": {"norad_id": 34964, "name": "COSMOS 2251 DEB", "group": "cosmos-2251-debris", "lat": -28.636903081889695, "lon": -20.186910657570788, "alt_km": 978.7693270920199, "timestamp": "2025-12-12T03:50:52.813987+00:00", "meta": {"OBJECT_NAME": "COSMOS 2251 DEB", "OBJECT_ID": "1993-036AET", "EPOCH": "2025-12-11T09:08:17.866176", "MEAN_MOTION": 14.00597574, "ECCENTRICITY": 0.02128281, "INCLINATION": 73.9709, "RA_OF_ASC_NODE": 350.2008, "ARG_OF_PERICENTER": 208.8532, "MEAN_ANOMALY": 150.07, "EPHEMERIS_TYPE": 0, "CLASSIFICATION_TYPE": "U", "NORAD_CAT_ID": 34964, "ELEMENT_SET_NO": 999, "REV_AT_EPOCH": 84459, "BSTAR": 0.0021903006, "MEAN_MOTION_DOT": 3.941e-05, "MEAN_MOTION_DDOT": 0}, "tle": {"line1": "1 34964U 93036AET 25345.38076234  .00003941  00000+0  21903-2 0  9992", "line2": "2 34964  73.9709 350.2008 0212828 208.8532 150.0700 14.00597574844597"}}, "geometry": {"type": "Point", "coordinates": [-20.186910657570788, -28.636903081889695]}}, {"type": "Feature", "properties": {"norad_id": 34965, "name": "COSMOS 2251 DEB", "group": "cosmos-2251-debris", "lat": -58.13471984678367, "lon": 102.16064786961233, "alt_km": 722.4126255488954, "timestamp": "2025-12-12T03:50:52.813997+00:00", "meta": {"OBJECT_NAME": "COSMOS 2251 DEB", "OBJECT_ID": "1993-036AEU", "EPOCH": "2025-12-11T09:54:10.265184", "MEAN_MOTION": 14.48702327, "ECCENTRICITY": 0.00265268, "INCLINATION": 74.0505, "RA_OF_ASC_NODE": 130.9513, "ARG_OF_PERICENTER": 258.4376, "MEAN_ANOMALY": 101.3805, "EPHEMERIS_TYPE": 0, "CLASSIFICATION_TYPE": "U", "NORAD_CAT_ID": 34965, "ELEMENT_SET_NO": 999, "REV_AT_EPOCH": 87094, "BSTAR": 0.00059334026, "MEAN_MOTION_DOT": 2.219e-05, "MEAN_MOTION_DDOT": 0}, "tle": {"line1": "1 34965U 93036AEU 25345.41261881  .00002219  00000+0  59334-3 0  9998", "line2": "2 34965  74.0505 130.9513 0026526 258.4376 101.3805 14.48702327870942"}}, "geometry": {"type": "Point", "coordinates": [102.16064786961233, -58.13471984678367]}}, {"type": "Feature", "properties": {"norad_id": 34967, "name": "COSMOS 2251 DEB", "group": "cosmos-2251-debris", "lat": -36.13554622376415, "lon": 87.03925333166592, "alt_km": 777.3914452294466, "timestamp": "2025-12-12T03:50:52.814007+00:00", "meta": {"OBJECT_NAME": "COSMOS 2251 DEB", "OBJECT_ID": "1993-036AEW", "EPOCH": "2025-12-11T01:54:29.105856", "MEAN_MOTION": 14.44250286, "ECCENTRICITY": 0.00379354, "INCLINATION": 73.9933, "RA_OF_ASC_NODE": 256.9557, "ARG_OF_PERICENTER": 43.5887, "MEAN_ANOMALY": 316.8256, "EPHEMERIS_TYPE": 0, "CLASSIFICATION_TYPE": "U", "NORAD_CAT_ID": 34967, "ELEMENT_SET_NO": 999, "REV_AT_EPOCH": 64933, "BSTAR": 0.0010619117, "MEAN_MOTION_DOT": 3.655e-05, "MEAN_MOTION_DDOT": 0}, "tle": {"line1": "1 34967U 93036AEW 25345.07950354  .00003655  00000+0  10619-2 0  9999", "line2": "2 34967  73.9933 256.9557 0037935  43.5887 316.8256 14.44250286649338"}}, "geometry": {"type": "Point", "coordinates": [87.03925333166592, -36.13554622376415]}}, {"type": "Feature", "properties": {"norad_id": 34968, "name": "COSMOS 2251 DEB", "group": "cosmos-2251-debris", "lat": 40.25964579013336, "lon": -97.79975993266409, "alt_km": 640.4723241090269, "timestamp": "2025-12-12T03:50:52.814017+00:00", "meta": {"OBJECT_NAME": "COSMOS 2251 DEB", "OBJECT_ID": "1993-036AEX", "EPOCH": "2025-12-11T11:12:23.787072", "MEAN_MOTION": 14.59403655, "ECCENTRICITY": 0.00865527, "INCLINATION": 74.0389, "RA_OF_ASC_NODE": 249.4951, "ARG_OF_PERICENTER": 10.16, "MEAN_ANOMALY": 350.1288, "EPHEMERIS_TYPE": 0, "CLASSIFICATION_TYPE": "U", "NORAD_CAT_ID": 34968, "ELEMENT_SET_NO": 999, "REV_AT_EPOCH": 88459, "BSTAR": 0.00028941765, "MEAN_MOTION_DOT": 1.412e-05, "MEAN_MOTION_DDOT": 0}, "tle": {"line1": "1 34968U 93036AEX 25345.46694198  .00001412  00000+0  28942-3 0  9992", "line2": "2 34968  74.0389 249.4951 0086552  10.1600 350.1288 14.59403655884594"}}, "geometry": {"type": "Point", "coordinates": [-97.79975993266409, 40.25964579013336]}}, {"type": "Feature", "properties": {"norad_id": 34969, "name": "COSMOS 2251 DEB", "group": "cosmos-2251-debris", "lat": -9.152321330977479, "lon": -153.1486769028357, "alt_km": 742.8732049711489, "timestamp": "2025-12-12T03:50:52.814053+00:00", "meta": {"OBJECT_NAME": "COSMOS 2251 DEB", "OBJECT_ID": "1993-036AEY", "EPOCH": "2025-12-09T11:16:06.111552", "MEAN_MOTION": 14.32248944, "ECCENTRICITY": 0.00738203, "INCLINATION": 74.0146, "RA_OF_ASC_NODE": 29.119, "ARG_OF_PERICENTER": 163.1468, "MEAN_ANOMALY": 197.2162, "EPHEMERIS_TYPE": 0, "CLASSIFICATION_TYPE": "U", "NORAD_CAT_ID": 34969, "ELEMENT_SET_NO": 999, "REV_AT_EPOCH": 65090, "BSTAR": 0.00049233942, "MEAN_MOTION_DOT": 1.343e-05, "MEAN_MOTION_DDOT": 0}, "tle": {"line1": "1 34969U 93036AEY 25343.46951518  .00001343  00000+0  49234-3 0  9993", "line2": "2 34969  74.0146  29.1190 0073820 163.1468 197.2162 14.32248944650905"}}, "geometry": {"type": "Point", "coordinates": [-153.1486769028357, -9.152321330977479]}}, {"type": "Feature", "properties": {"norad_id": 34971, "name": "COSMOS 2251 DEB", "group": "cosmos-2251-debris", "lat": 63.49776836983309, "lon": 70.92365617012494, "alt_km": 663.1546921699855, "timestamp": "2025-12-12T03:50:52.814064+00:00", "meta": {"OBJECT_NAME": "COSMOS 2251 DEB", "OBJECT_ID": "1993-036AFA", "EPOCH": "2025-12-11T13:03:07.178112", "MEAN_MOTION": 14.55631176, "ECCENTRICITY": 0.00696698, "INCLINATION": 73.9786, "RA_OF_ASC_NODE": 287.2832, "ARG_OF_PERICENTER": 153.3092, "MEAN_ANOMALY": 329.2446, "EPHEMERIS_TYPE": 0, "CLASSIFICATION_TYPE": "U", "NORAD_CAT_ID": 34971, "ELEMENT_SET_NO": 999, "REV_AT_EPOCH": 66155, "BSTAR": 0.00028423964, "MEAN_MOTION_DOT": 1.251e-05, "MEAN_MOTION_DDOT": 0}, "tle": {"line1": "1 34971U 93036AFA 25345.54383308  .00001251  00000+0  28424-3 0  9999", "line2": "2 34971  73.9786 287.2832 0069669 153.3092 329.2446 14.55631176661559"}}, "geometry": {"type": "Point", "coordinates": [70.92365617012494, 63.49776836983309]}}, {"type": "Feature", "properties": {"norad_id": 34972, "name": "COSMOS 2251 DEB", "group": "cosmos-2251-debris", "lat": -32.54811203987166, "lon": 40.4291340451267, "alt_km": 668.0083258434215, "timestamp": "2025-12-12T03:50:52.814075+00:00", "meta": {"OBJECT_NAME": "COSMOS 2251 DEB", "OBJECT_ID": "1993-036AFB", "EPOCH": "2025-12-11T15:39:21.883968", "MEAN_MOTION": 14.72853144, "ECCENTRICITY": 0.00337724, "INCLINATION": 73.9883, "RA_OF_ASC_NODE": 51.9818, "ARG_OF_PERICENTER": 211.2794, "MEAN_ANOMALY": 302.0025, "EPHEMERIS_TYPE": 0, "CLASSIFICATION_TYPE": "U", "NORAD_CAT_ID": 34972, "ELEMENT_SET_NO": 999, "REV_AT_EPOCH": 87634, "BSTAR": 0.0021673296, "MEAN_MOTION_DOT": 0.00013997, "MEAN_MOTION_DDOT": 0}, "tle": {"line1": "1 34972U 93036AFB 25345.65233662  .00013997  00000+0  21673-2 0  9997", "line2": "2 34972  73.9883  51.9818 0033772 211.2794 302.0025 14.72853144876344"}}, "geometry": {"type": "Point", "coordinates": [40.4291340451267, -32.54811203987166]}}]}